ORBCOMM FM33            
1 25983U 99065D   24119.89257097  .00001768  00000+0  63028-3 0  9993
2 25983  45.0265 165.0035 0007389 150.7786  18.0072 14.37625188276471
ORBCOMM FM36            
1 25984U 99065E   24119.67367645  .00002526  00000+0  91838-3 0  9994
2 25984  45.0385 251.3393 0002174 358.9709   1.1134 14.35515369274809
ORBCOMM FM35            
1 25985U 99065F   24119.64251042  .00002031  00000+0  75436-3 0  9992
2 25985  45.0388 254.0959 0003322 146.8208 213.2848 14.35096634275195
ORBCOMM FM34            
1 25986U 99065G   24119.75190058  .00002019  00000+0  75074-3 0  9998
2 25986  45.0382 254.1126 0002498  81.1267 278.9864 14.35064893275329
ORBCOMM FM38            
1 33060U 08031A   24119.73139077  .00003218  00000+0  47584-3 0  9992
2 33060  48.4392 124.5668 0005137  57.2972 302.8437 14.77441194853380
ORBCOMM FM41            
1 33061U 08031B   24119.46555337  .00003765  00000+0  55525-3 0  9995
2 33061  48.4422 132.4183 0004472  39.8174 114.1561 14.77168559852849
ORBCOMM FM29            
1 33062U 08031C   24119.79468267  .00002933  00000+0  43966-3 0  9999
2 33062  48.4376 138.8952 0006276  41.3409 128.8522 14.77097966852803
ORBCOMM FM39            
1 33063U 08031D   24120.12639407  .00002229  00000+0  34888-3 0  9996
2 33063  48.4387 157.7561 0007394  18.4835 341.6346 14.76120081852973
